{
  "type": "FeatureCollection",
  "features": [
    {
      "type": "Feature",
      "properties": {
        "norad_id": 39111,
        "name": "COSMOS 2251 DEB",
        "group": "cosmos-2251-debris",
        "lat": -35.818005200336366,
        "lon": 33.89206783855838,
        "alt_km": 526.9647420128049,
        "timestamp": "2025-12-10T11:33:53.782168+00:00",
        "meta_object_name": "COSMOS 2251 DEB",
        "meta_object_id": "1993-036BUA",
        "meta_epoch": "2025-12-01T22:58:55.551360",
        "meta_mean_motion": 15.11912111,
        "meta_eccentricity": 0.00109111,
        "meta_inclination": 74.0059,
        "meta_ra_of_asc_node": 63.5328,
        "meta_arg_of_pericenter": 39.1207,
        "meta_mean_anomaly": 321.0773,
        "meta_ephemeris_type": 0,
        "meta_classification_type": "U",
        "meta_norad_cat_id": 39111,
        "meta_element_set_no": 999,
        "meta_rev_at_epoch": 8982,
        "meta_bstar": 0.0056424119,
        "meta_mean_motion_dot": 0.00098096,
        "meta_mean_motion_ddot": 0,
        "tle_line1": "1 39111U 93036BUA 25335.95758740  .00098096  00000+0  56424-2 0  9993",
        "tle_line2": "2 39111  74.0059  63.5328 0010911  39.1207 321.0773 15.11912111 89826"
      },
      "geometry": {
        "type": "Point",
        "coordinates": [
          33.89206783855838,
          -35.818005200336366
        ]
      }
    },
    {
      "type": "Feature",
      "properties": {
        "norad_id": 39546,
        "name": "COSMOS 2251 DEB",
        "group": "cosmos-2251-debris",
        "lat": -67.43560071653525,
        "lon": 5.019934702976084,
        "alt_km": 578.022730411858,
        "timestamp": "2025-12-10T11:33:53.782178+00:00",
        "meta_object_name": "COSMOS 2251 DEB",
        "meta_object_id": "1993-036BUC",
        "meta_epoch": "2025-12-10T03:59:23.244864",
        "meta_mean_motion": 14.91933203,
        "meta_eccentricity": 0.0044058,
        "meta_inclination": 73.9968,
        "meta_ra_of_asc_node": 141.9703,
        "meta_arg_of_pericenter": 302.2673,
        "meta_mean_anomaly": 57.4244,
        "meta_ephemeris_type": 0,
        "meta_classification_type": "U",
        "meta_norad_cat_id": 39546,
        "meta_element_set_no": 999,
        "meta_rev_at_epoch": 64398,
        "meta_bstar": 0.0019196,
        "meta_mean_motion_dot": 0.00019813,
        "meta_mean_motion_ddot": 0,
        "tle_line1": "1 39546U 93036BUC 25344.16624126  .00019813  00000+0  19196-2 0  9993",
        "tle_line2": "2 39546  73.9968 141.9703 0044058 302.2673  57.4244 14.91933203643981"
      },
      "geometry": {
        "type": "Point",
        "coordinates": [
          5.019934702976084,
          -67.43560071653525
        ]
      }
    },
    {
      "type": "Feature",
      "properties": {
        "norad_id": 39547,
        "name": "COSMOS 2251 DEB",
        "group": "cosmos-2251-debris",
        "lat": 25.438737530704454,
        "lon": -164.83957832156864,
        "alt_km": 558.9745003204671,
        "timestamp": "2025-12-10T11:33:53.782188+00:00",
        "meta_object_name": "COSMOS 2251 DEB",
        "meta_object_id": "1993-036BUD",
        "meta_epoch": "2025-12-08T21:19:55.077888",
        "meta_mean_motion": 15.02877714,
        "meta_eccentricity": 0.0005088,
        "meta_inclination": 74.0015,
        "meta_ra_of_asc_node": 26.2621,
        "meta_arg_of_pericenter": 23.5572,
        "meta_mean_anomaly": 154.1498,
        "meta_ephemeris_type": 0,
        "meta_classification_type": "U",
        "meta_norad_cat_id": 39547,
        "meta_element_set_no": 999,
        "meta_rev_at_epoch": 63967,
        "meta_bstar": 0.002907,
        "meta_mean_motion_dot": 0.0003919,
        "meta_mean_motion_ddot": 0,
        "tle_line1": "1 39547U 93036BUD 25342.88883192  .00039190  00000+0  29070-2 0  9993",
        "tle_line2": "2 39547  74.0015  26.2621 0005088  23.5572 154.1498 15.02877714639676"
      },
      "geometry": {
        "type": "Point",
        "coordinates": [
          -164.83957832156864,
          25.438737530704454
        ]
      }
    },
    {
      "type": "Feature",
      "properties": {
        "norad_id": 39553,
        "name": "COSMOS 2251 DEB",
        "group": "cosmos-2251-debris",
        "lat": 70.662078744905,
        "lon": 28.61119123641632,
        "alt_km": 761.3058277967357,
        "timestamp": "2025-12-10T11:33:53.782198+00:00",
        "meta_object_name": "COSMOS 2251 DEB",
        "meta_object_id": "1993-036BUK",
        "meta_epoch": "2025-12-07T06:00:50.455872",
        "meta_mean_motion": 13.99876591,
        "meta_eccentricity": 0.02014092,
        "meta_inclination": 74.0304,
        "meta_ra_of_asc_node": 339.5232,
        "meta_arg_of_pericenter": 116.8065,
        "meta_mean_anomaly": 245.3825,
        "meta_ephemeris_type": 0,
        "meta_classification_type": "U",
        "meta_norad_cat_id": 39553,
        "meta_element_set_no": 999,
        "meta_rev_at_epoch": 75540,
        "meta_bstar": 0.00088887208,
        "meta_mean_motion_dot": 1.532e-05,
        "meta_mean_motion_ddot": 0,
        "tle_line1": "1 39553U 93036BUK 25341.25058398  .00001532  00000+0  88887-3 0  9993",
        "tle_line2": "2 39553  74.0304 339.5232 0201409 116.8065 245.3825 13.99876591755403"
      },
      "geometry": {
        "type": "Point",
        "coordinates": [
          28.61119123641632,
          70.662078744905
        ]
      }
    },
    {
      "type": "Feature",
      "properties": {
        "norad_id": 39554,
        "name": "COSMOS 2251 DEB",
        "group": "cosmos-2251-debris",
        "lat": -64.10648894438053,
        "lon": -126.90319638320912,
        "alt_km": 544.330909620192,
        "timestamp": "2025-12-10T11:33:53.782208+00:00",
        "meta_object_name": "COSMOS 2251 DEB",
        "meta_object_id": "1993-036BUL",
        "meta_epoch": "2025-12-09T02:31:49.532160",
        "meta_mean_motion": 15.09944132,
        "meta_eccentricity": 0.00030494,
        "meta_inclination": 74.0198,
        "meta_ra_of_asc_node": 272.1204,
        "meta_arg_of_pericenter": 73.3792,
        "meta_mean_anomaly": 298.0934,
        "meta_ephemeris_type": 0,
        "meta_classification_type": "U",
        "meta_norad_cat_id": 39554,
        "meta_element_set_no": 999,
        "meta_rev_at_epoch": 64330,
        "meta_bstar": 0.0036843194,
        "meta_mean_motion_dot": 0.00060265,
        "meta_mean_motion_ddot": 0,
        "tle_line1": "1 39554U 93036BUL 25343.10543440  .00060265  00000+0  36843-2 0  9999",
        "tle_line2": "2 39554  74.0198 272.1204 0003049  73.3792 298.0934 15.09944132643301"
      },
      "geometry": {
        "type": "Point",
        "coordinates": [
          -126.90319638320912,
          -64.10648894438053
        ]
      }
    },
    {
      "type": "Feature",
      "properties": {
        "norad_id": 39583,
        "name": "COSMOS 2251 DEB",
        "group": "cosmos-2251-debris",
        "lat": 16.580882927135157,
        "lon": -103.50820568124622,
        "alt_km": 597.544855412737,
        "timestamp": "2025-12-10T11:33:53.782218+00:00",
        "meta_object_name": "COSMOS 2251 DEB",
        "meta_object_id": "1993-036BUN",
        "meta_epoch": "2025-12-08T00:17:58.189056",
        "meta_mean_motion": 14.60283512,
        "meta_eccentricity": 0.01370352,
        "meta_inclination": 73.9395,
        "meta_ra_of_asc_node": 256.3131,
        "meta_arg_of_pericenter": 10.5711,
        "meta_mean_anomaly": 349.8282,
        "meta_ephemeris_type": 0,
        "meta_classification_type": "U",
        "meta_norad_cat_id": 39583,
        "meta_element_set_no": 999,
        "meta_rev_at_epoch": 61710,
        "meta_bstar": 0.0025519779,
        "meta_mean_motion_dot": 0.00014063,
        "meta_mean_motion_ddot": 0,
        "tle_line1": "1 39583U 93036BUN 25342.01247904  .00014063  00000+0  25520-2 0  9991",
        "tle_line2": "2 39583  73.9395 256.3131 0137035  10.5711 349.8282 14.60283512617104"
      },
      "geometry": {
        "type": "Point",
        "coordinates": [
          -103.50820568124622,
          16.580882927135157
        ]
      }
    },
    {
      "type": "Feature",
      "properties": {
        "norad_id": 39585,
        "name": "COSMOS 2251 DEB",
        "group": "cosmos-2251-debris",
        "lat": -35.32826986895814,
        "lon": 137.31626362045213,
        "alt_km": 743.2980149873592,
        "timestamp": "2025-12-10T11:33:53.782228+00:00",
        "meta_object_name": "COSMOS 2251 DEB",
        "meta_object_id": "1993-036BUQ",
        "meta_epoch": "2025-12-09T14:49:35.322816",
        "meta_mean_motion": 14.58655096,
        "meta_eccentricity": 0.0065405,
        "meta_inclination": 74.0411,
        "meta_ra_of_asc_node": 307.2584,
        "meta_arg_of_pericenter": 69.0888,
        "meta_mean_anomaly": 291.7262,
        "meta_ephemeris_type": 0,
        "meta_classification_type": "U",
        "meta_norad_cat_id": 39585,
        "meta_element_set_no": 999,
        "meta_rev_at_epoch": 62475,
        "meta_bstar": 0.00049693,
        "meta_mean_motion_dot": 2.356e-05,
        "meta_mean_motion_ddot": 0,
        "tle_line1": "1 39585U 93036BUQ 25343.61776994  .00002356  00000+0  49693-3 0  9996",
        "tle_line2": "2 39585  74.0411 307.2584 0065405  69.0888 291.7262 14.58655096624759"
      },
      "geometry": {
        "type": "Point",
        "coordinates": [
          137.31626362045213,
          -35.32826986895814
        ]
      }
    }
  ]
}